SL-16 R/B               
1 22566U 93016B   25340.62683066 -.00000177  00000+0 -66205-4 0  9990
2 22566  71.0089  50.6424 0007811 109.3347 250.8621 14.15287972689006
COSMOS 2242             
1 22626U 93024A   25340.54941402  .00003564  00000+0  31444-3 0  9995
2 22626  82.5190 355.7621 0014797 257.2637 102.6931 14.96068589766461
SL-16 R/B               
1 22803U 93059B   25340.52090961  .00000280  00000+0  16247-3 0  9999
2 22803  70.9898 207.5999 0017622 344.6763  15.3825 14.17212257666330
ARIANE 40 R/B           
1 22830U 93061H   25340.61257397  .00000560  00000+0  22136-3 0  9995
2 22830  98.5084  46.2539 0010527 194.1707 165.9183 14.32795419680770
COSMOS 2278             
1 23087U 94023A   25340.38281943 -.00000028  00000+0  98620-5 0  9990
2 23087  71.0549  10.3108 0008656 189.7803 170.3153 14.14351324631617
SL-16 R/B               
1 23088U 94023B   25340.54258288  .00000337  00000+0  19866-3 0  9990
2 23088  71.0007 266.4995 0001102  54.6686 305.4539 14.15000462632911
SL-16 R/B               
1 23343U 94074B   25340.66458610  .00000999  00000+0  14090-3 0  9992
2 23343  97.7207  10.2105 0007139 153.2787 320.2078 14.79279419673495
SL-16 R/B               
1 23405U 94077B   25340.63116223  .00000171  00000+0  11195-3 0  9997
2 23405  70.9811 188.2647 0004578 288.6333  71.4293 14.15546456603067
ARIANE 40+ R/B          
1 23561U 95021B   25340.63318884  .00000659  00000+0  22451-3 0  9995
2 23561  98.4659  48.2956 0007687  66.0279  60.1607 14.39688414605854
SL-16 R/B               
1 23705U 95058B   25340.56288996  .00000338  00000+0  19722-3 0  9998
2 23705  71.0225  15.7729 0014907 262.9688  96.9740 14.15480905554678
SL-16 R/B               
1 24298U 96051B   25340.53955776  .00000063  00000+0  60685-4 0  9994
2 24298  70.7598  12.4082 0019283 268.9708  90.9203 14.12395702508496
ORBVIEW 2 (SEASTAR)     
1 24883U 97037A   25340.43264668  .00000673  00000+0  25063-3 0  9998
2 24883  98.8455 137.3484 0001968   1.8529 358.2663 14.35410141495099
